NORAD_CAT_ID,OBJECT_NAME,OBJECT_TYPE,EPOCH,MEAN_MOTION,ECCENTRICITY,INCLINATION,RA_OF_ASC_NODE,ARG_OF_PERICENTER,MEAN_ANOMALY,BSTAR,MEAN_MOTION_DOT,MEAN_MOTION_DDOT,TLE_LINE0,TLE_LINE1,TLE_LINE2,SEMIMAJOR_AXIS,PERIOD,APOGEE,PERIGEE,DECAYED
52292.0,STARLINK-3753,PAYLOAD,2022-05-05 22:00:00,15.73188688,0.00017,53.2146,304.3622,43.8479,257.6018,-0.00020064,-0.00028671,0.0,0 STARLINK-3753,1 52292U 22041AH  22125.91667824 -.00028671  00000-0 -20064-3 0  9995,2 52292  53.2146 304.3622 0001700  43.8479 257.6018 15.73188688  2899,6727.927,91.534,350.936,348.649,0.0
52292.0,STARLINK-3753,PAYLOAD,2022-05-06 06:00:00,15.73211766,0.0001749,53.2174,302.7135,46.4776,343.635,-7.6325e-05,-0.00011324,0.0,0 STARLINK-3753,1 52292U 22041AH  22126.25001157 -.00011324  00000-0 -76325-4 0  9993,2 52292  53.2174 302.7135 0001749  46.4776 343.6350 15.73211766  3523,6727.861999999999,91.532,350.903,348.55,0.0
52292.0,STARLINK-3753,PAYLOAD,2022-05-06 14:00:01,15.73307969,0.0001658,53.2163,301.0619,51.6448,67.5508,-0.0029845,-0.00401969,0.0,0 STARLINK-3753,1 52292U 22041AH  22126.58334491 -.00401969  00000-0 -29845-2 0  9990,2 52292  53.2163 301.0619 0001658  51.6448  67.5508 15.73307969  3576,6727.587,91.527,350.5680000000001,348.337,0.0
52292.0,STARLINK-3753,PAYLOAD,2022-05-06 20:00:01,15.73235298,0.000179,53.2148,299.8258,43.1309,52.7894,-9.5859e-06,-1.968e-05,0.0,0 STARLINK-3753,1 52292U 22041AH  22126.83334491 -.00001968  00000-0 -95859-5 0  9994,2 52292  53.2148 299.8258 0001790  43.1309  52.7894 15.73235298  3615,6727.795,91.531,350.86400000000015,348.455,0.0
52292.0,STARLINK-3753,PAYLOAD,2022-05-07 12:00:00,15.73263668,0.0001546,53.2147,296.5248,44.4421,229.3792,-0.00058078,-0.00081567,0.0,0 STARLINK-3753,1 52292U 22041AH  22127.50001157 -.00081567  00000-0 -58078-3 0  9992,2 52292  53.2147 296.5248 0001546  44.4421 229.3792 15.73263668  3728,6727.714,91.529,350.619,348.539,0.0
52292.0,STARLINK-3753,PAYLOAD,2022-05-07 14:00:01,15.73271135,0.0001613,53.2146,296.113,41.3932,344.6714,-0.00094411,-0.00131475,0.0,0 STARLINK-3753,1 52292U 22041AH  22127.58334491 -.00131475  00000-0 -94411-3 0  9995,2 52292  53.2146 296.1130 0001613  41.3932 344.6714 15.73271135  3162,6727.691999999999,91.529,350.64300000000014,348.472,0.0
52292.0,STARLINK-3753,PAYLOAD,2022-05-07 22:00:00,15.7313307,0.0001754,53.214,294.4651,34.9221,80.1217,0.00071148,0.00100143,0.0,0 STARLINK-3753,1 52292U 22041AH  22127.91667824  .00100143  00000-0  71148-3 0  9999,2 52292  53.2140 294.4651 0001754  34.9221  80.1217 15.73133070  3211,6728.0859999999975,91.537,351.131,348.771,0.0
52292.0,STARLINK-3753,PAYLOAD,2022-05-08 04:00:00,15.73219586,0.0001669,53.214,293.2263,37.3953,54.3031,-0.00044217,-0.00062273,0.0,0 STARLINK-3753,1 52292U 22041AH  22128.16667824 -.00062273  00000-0 -44217-3 0  9997,2 52292  53.2140 293.2263 0001669  37.3953  54.3031 15.73219586  3822,6727.839,91.532,350.827,348.581,0.0
52292.0,STARLINK-3753,PAYLOAD,2022-05-08 14:00:01,15.73180879,0.0001761999999999,53.2143,291.1645,42.7249,250.1093,0.00012257,0.00016602,0.0,0 STARLINK-3753,1 52292U 22041AH  22128.58334491  .00016602  00000-0  12257-3 0  9996,2 52292  53.2143 291.1645 0001762  42.7249 250.1093 15.73180879  3329,6727.95,91.534,351.0,348.629,0.0
52292.0,STARLINK-3753,PAYLOAD,2022-05-08 20:00:01,15.73209281,0.000191,53.2143,289.9289,35.3878,234.1424,8.9088e-06,6.3e-06,0.0,0 STARLINK-3753,1 52292U 22041AH  22128.83334491  .00000630  00000-0  89088-5 0  9996,2 52292  53.2143 289.9289 0001910  35.3878 234.1424 15.73209281  3935,6727.869000000002,91.533,351.019,348.449,0.0
52292.0,STARLINK-3753,PAYLOAD,2022-05-08 22:00:00,15.73208409,0.0001899,53.214,289.5165,32.2642,349.5016,2.0693000000000007e-05,2.285e-05,0.0,0 STARLINK-3753,1 52292U 22041AH  22128.91667824  .00002285  00000-0  20693-4 0  9998,2 52292  53.2140 289.5165 0001899  32.2642 349.5016 15.73208409  3379,6727.871,91.533,351.014,348.459,0.0
52292.0,STARLINK-3753,PAYLOAD,2022-05-09 14:00:01,15.73264532,0.000169,53.2139,286.2162,30.1501,169.5316,-0.000629,-0.00088223,0.0,0 STARLINK-3753,1 52292U 22041AH  22129.58335648 -.00088223  00000-0 -62900-3 0  9992,2 52292  53.2139 286.2162 0001690  30.1501 169.5316 15.73264532  3482,6727.7109999999975,91.529,350.713,348.439,0.0
52292.0,STARLINK-3753,PAYLOAD,2022-05-09 22:00:00,15.73222028,0.0001883,53.2132,284.5678,22.0155,266.596,-1.8899e-05,-3.275e-05,0.0,0 STARLINK-3753,1 52292U 22041AH  22129.91667824 -.00003275  00000-0 -18899-4 0  9996,2 52292  53.2132 284.5678 0001883  22.0155 266.5960 15.73222028  4104,6727.831999999999,91.532,350.964,348.431,0.0
52292.0,STARLINK-3753,PAYLOAD,2022-05-10 12:00:00,15.73253696,0.0001813,53.2136,281.6791,33.0278,321.2003,-0.00059263,-0.00083171,0.0,0 STARLINK-3753,1 52292U 22041AH  22130.50001157 -.00083171  00000-0 -59263-3 0  9996,2 52292  53.2136 281.6791 0001813  33.0278 321.2003 15.73253696  4194,6727.7419999999975,91.53,350.827,348.38699999999994,0.0
52292.0,STARLINK-3753,PAYLOAD,2022-05-10 14:00:01,15.73257441,0.0001907,53.2135,281.2673,32.1441,74.3247,-0.00087385,-0.0012181,0.0,0 STARLINK-3753,1 52292U 22041AH  22130.58334491 -.00121810  00000-0 -87385-3 0  9993,2 52292  53.2135 281.2673 0001907  32.1441  74.3247 15.73257441  3641,6727.731,91.53,350.879,348.31300000000016,0.0
52292.0,STARLINK-3753,PAYLOAD,2022-05-10 19:38:54,15.73226138,0.0001877,53.214,280.103,32.0822,328.0312,6.5188e-05,8.547e-05,0.0,0 STARLINK-3753,1 52292U 22041AH  22130.81868361  .00008547  00000-0  65188-4 0  9994,2 52292  53.2140 280.1030 0001877  32.0822 328.0312 15.73226138  4248,6727.821,91.532,350.9480000000001,348.423,0.0
52292.0,STARLINK-3753,PAYLOAD,2022-05-11 20:00:01,15.7322641,0.0002119,53.2145,275.0823,20.1623,329.9024,-5.4846e-05,-8.321e-05,0.0,0 STARLINK-3753,1 52292U 22041AH  22131.83334491 -.00008321  00000-0 -54846-4 0  9990,2 52292  53.2145 275.0823 0002119  20.1623 329.9024 15.73226410  4404,6727.82,91.532,351.111,348.259,0.0
52292.0,STARLINK-3753,PAYLOAD,2022-05-11 22:00:00,15.7322451,0.0002116,53.2142,274.6695,18.4441,83.8612,-4.7605e-05,-7.304e-05,0.0,0 STARLINK-3753,1 52292U 22041AH  22131.91667824 -.00007304  00000-0 -47605-4 0  9993,2 52292  53.2142 274.6695 0002116  18.4441  83.8612 15.73224510  1302,6727.825,91.532,351.11400000000015,348.267,0.0
52292.0,STARLINK-3753,PAYLOAD,2022-05-12 14:00:01,15.73240398,0.000207,53.2147,271.3694,21.4444,258.7592,-0.00044405,-0.00062592,0.0,0 STARLINK-3753,1 52292U 22041AH  22132.58334491 -.00062592  00000-0 -44405-3 0  9992,2 52292  53.2147 271.3694 0002070  21.4444 258.7592 15.73240398  1308,6727.78,91.531,351.038,348.25199999999984,0.0
52292.0,STARLINK-3753,PAYLOAD,2022-05-12 22:00:00,15.73210031,0.000231,53.2146,269.7204,18.0136,351.1575,-0.00023508,-0.00033501,0.0,0 STARLINK-3753,1 52292U 22041AH  22132.91667824 -.00033501  00000-0 -23508-3 0  9997,2 52292  53.2146 269.7204 0002310  18.0136 351.1575 15.73210031  1302,6727.8669999999975,91.533,351.286,348.177,0.0
52292.0,STARLINK-3753,PAYLOAD,2022-05-13 06:00:00,15.73161012,0.0002184,53.2148,268.0688,25.4779,72.5949,0.0002473,0.00034172,0.0,0 STARLINK-3753,1 52292U 22041AH  22133.25001157  .00034172  00000-0  24730-3 0  9997,2 52292  53.2148 268.0688 0002184  25.4779  72.5949 15.73161012  4627,6728.005999999999,91.535,351.341,348.402,0.0
52292.0,STARLINK-3753,PAYLOAD,2022-05-13 14:00:01,15.73180889,0.0002413,53.2148,266.4208,25.931,161.0524,-0.0002507,-0.00035633,0.0,0 STARLINK-3753,1 52292U 22041AH  22133.58334491 -.00035633  00000-0 -25070-3 0  9996,2 52292  53.2148 266.4208 0002413  25.9310 161.0524 15.73180889  1306,6727.95,91.534,351.43800000000016,348.191,0.0
52292.0,STARLINK-3753,PAYLOAD,2022-05-13 22:00:00,15.73148557,0.0002499,53.2141,264.7715,21.9474,253.9299,0.00018914,0.0002595,0.0,0 STARLINK-3753,1 52292U 22041AH  22133.91667824  .00025950  00000-0  18914-3 0  9990,2 52292  53.2141 264.7715 0002499  21.9474 253.9299 15.73148557  4730,6728.042,91.536,351.588,348.226,0.0
52292.0,STARLINK-3753,PAYLOAD,2022-05-14 14:00:01,15.73248825,0.0002472,53.2147,261.4723,21.3838,72.2837,1.1425e-05,9.85e-06,0.0,0 STARLINK-3753,1 52292U 22041AH  22134.58334491  .00000985  00000-0  11425-4 0  9997,2 52292  53.2147 261.4723 0002472  21.3838  72.2837 15.73248825  4838,6727.755999999999,91.53,351.284,347.958,0.0
52292.0,STARLINK-3753,PAYLOAD,2022-05-14 22:00:00,15.73267561,0.0002587,53.2148,259.8228,17.8463,164.8119,-0.00033457,-0.00047457,0.0,0 STARLINK-3753,1 52292U 22041AH  22134.91667824 -.00047457  00000-0 -33457-3 0  9998,2 52292  53.2148 259.8228 0002587  17.8463 164.8119 15.73267561  1309,6727.703,91.529,351.30800000000005,347.827,0.0
52292.0,STARLINK-3753,PAYLOAD,2022-05-15 06:00:00,15.73208734,0.0002416,53.2174,258.1738,25.4357,245.9046,-4.5506e-05,-7.006e-05,0.0,0 STARLINK-3753,1 52292U 22041AH  22135.25001157 -.00007006  00000-0 -45506-4 0  9992,2 52292  53.2174 258.1738 0002416  25.4357 245.9046 15.73208734  4944,6727.87,91.533,351.361,348.11,0.0
52292.0,STARLINK-3753,PAYLOAD,2022-05-15 14:00:01,15.73184929,0.0002806,53.2148,256.5236,25.5204,335.0748,0.00027603,0.00038275,0.0,0 STARLINK-3753,1 52292U 22041AH  22135.58335648  .00038275  00000-0  27603-3 0  9990,2 52292  53.2148 256.5236 0002806  25.5204 335.0748 15.73184929  4999,6727.938,91.534,351.691,347.915,0.0
52292.0,STARLINK-3753,PAYLOAD,2022-05-15 22:00:00,15.73243893,0.0002814,53.2142,254.8739,21.4243,68.0505,-0.00016153,-0.00023277,0.0,0 STARLINK-3753,1 52292U 22041AH  22135.91667824 -.00023277  00000-0 -16153-3 0  9997,2 52292  53.2142 254.8739 0002814  21.4243  68.0505 15.73243893  1301,6727.77,91.531,351.528,347.742,0.0
52292.0,STARLINK-3753,PAYLOAD,2022-05-16 12:00:00,15.73228225,0.0002631,53.2148,251.9869,16.678,138.4455,-0.00059811,-0.00083849,0.0,0 STARLINK-3753,1 52292U 22041AH  22136.50001157 -.00083849  00000-0 -59811-3 0  9993,2 52292  53.2148 251.9869 0002631  16.6780 138.4455 15.73228225  5131,6727.815,91.532,351.45,347.91,0.0
